{
  "type": "FeatureCollection",
  "features": [
    {
      "type": "Feature",
      "properties": {
        "norad_id": 66545,
        "name": "SHIJIAN-30A",
        "group": "last-30-days",
        "lat": -25.02591717738614,
        "lon": -35.787081559733544,
        "alt_km": 514.2778347310987,
        "timestamp": "2025-12-09T23:33:22.608513+00:00",
        "meta_object_name": "SHIJIAN-30A",
        "meta_object_id": "2025-266A",
        "meta_epoch": "2025-12-09T17:22:07.936608",
        "meta_mean_motion": 15.15552376,
        "meta_eccentricity": 0.0012776,
        "meta_inclination": 51.7991,
        "meta_ra_of_asc_node": 346.9918,
        "meta_arg_of_pericenter": 345.45,
        "meta_mean_anomaly": 14.6107,
        "meta_ephemeris_type": 0,
        "meta_classification_type": "U",
        "meta_norad_cat_id": 66545,
        "meta_element_set_no": 999,
        "meta_rev_at_epoch": 312,
        "meta_bstar": 0.00082109,
        "meta_mean_motion_dot": 0.00015522,
        "meta_mean_motion_ddot": 0,
        "tle_line1": "1 66545U 25266A   25343.72370297  .00015522  00000+0  82109-3 0  9998",
        "tle_line2": "2 66545  51.7991 346.9918 0012776 345.4500  14.6107 15.15552376  3129"
      },
      "geometry": {
        "type": "Point",
        "coordinates": [
          -35.787081559733544,
          -25.02591717738614
        ]
      }
    },
    {
      "type": "Feature",
      "properties": {
        "norad_id": 66546,
        "name": "SHIJIAN-30B",
        "group": "last-30-days",
        "lat": -27.538823435493924,
        "lon": -38.4581963926741,
        "alt_km": 516.0134034421244,
        "timestamp": "2025-12-09T23:33:22.608525+00:00",
        "meta_object_name": "SHIJIAN-30B",
        "meta_object_id": "2025-266B",
        "meta_epoch": "2025-12-09T14:13:10.595136",
        "meta_mean_motion": 15.15642408,
        "meta_eccentricity": 0.0010428,
        "meta_inclination": 51.7973,
        "meta_ra_of_asc_node": 347.6109,
        "meta_arg_of_pericenter": 348.0528,
        "meta_mean_anomaly": 12.02,
        "meta_ephemeris_type": 0,
        "meta_classification_type": "U",
        "meta_norad_cat_id": 66546,
        "meta_element_set_no": 999,
        "meta_rev_at_epoch": 310,
        "meta_bstar": 0.00088193,
        "meta_mean_motion_dot": 0.00016731,
        "meta_mean_motion_ddot": 0,
        "tle_line1": "1 66546U 25266B   25343.59248374  .00016731  00000+0  88193-3 0  9996",
        "tle_line2": "2 66546  51.7973 347.6109 0010428 348.0528  12.0200 15.15642408  3101"
      },
      "geometry": {
        "type": "Point",
        "coordinates": [
          -38.4581963926741,
          -27.538823435493924
        ]
      }
    },
    {
      "type": "Feature",
      "properties": {
        "norad_id": 66547,
        "name": "SHIJIAN-30C",
        "group": "last-30-days",
        "lat": -30.136682702347063,
        "lon": -41.408842892993505,
        "alt_km": 515.381567726552,
        "timestamp": "2025-12-09T23:33:22.608538+00:00",
        "meta_object_name": "SHIJIAN-30C",
        "meta_object_id": "2025-266C",
        "meta_epoch": "2025-12-09T18:58:59.395872",
        "meta_mean_motion": 15.156555,
        "meta_eccentricity": 0.0011349,
        "meta_inclination": 51.7982,
        "meta_ra_of_asc_node": 346.6898,
        "meta_arg_of_pericenter": 341.1019,
        "meta_mean_anomaly": 18.9535,
        "meta_ephemeris_type": 0,
        "meta_classification_type": "U",
        "meta_norad_cat_id": 66547,
        "meta_element_set_no": 999,
        "meta_rev_at_epoch": 313,
        "meta_bstar": 0.00082868,
        "meta_mean_motion_dot": 0.00015709,
        "meta_mean_motion_ddot": 0,
        "tle_line1": "1 66547U 25266C   25343.79096523  .00015709  00000+0  82868-3 0  9993",
        "tle_line2": "2 66547  51.7982 346.6898 0011349 341.1019  18.9535 15.15655500  3134"
      },
      "geometry": {
        "type": "Point",
        "coordinates": [
          -41.408842892993505,
          -30.136682702347063
        ]
      }
    },
    {
      "type": "Feature",
      "properties": {
        "norad_id": 66548,
        "name": "CZ-2C R/B",
        "group": "last-30-days",
        "lat": -31.647239260598198,
        "lon": -44.32589810438787,
        "alt_km": 531.4152263805636,
        "timestamp": "2025-12-09T23:33:22.608549+00:00",
        "meta_object_name": "CZ-2C R/B",
        "meta_object_id": "2025-266D",
        "meta_epoch": "2025-12-09T06:29:52.577088",
        "meta_mean_motion": 15.30065913,
        "meta_eccentricity": 0.0084126,
        "meta_inclination": 52.0568,
        "meta_ra_of_asc_node": 347.8047,
        "meta_arg_of_pericenter": 161.1693,
        "meta_mean_anomaly": 199.2437,
        "meta_ephemeris_type": 0,
        "meta_classification_type": "U",
        "meta_norad_cat_id": 66548,
        "meta_element_set_no": 999,
        "meta_rev_at_epoch": 308,
        "meta_bstar": 0.00042678,
        "meta_mean_motion_dot": 0.00013661,
        "meta_mean_motion_ddot": 0,
        "tle_line1": "1 66548U 25266D   25343.27074742  .00013661  00000+0  42678-3 0  9996",
        "tle_line2": "2 66548  52.0568 347.8047 0084126 161.1693 199.2437 15.30065913  3087"
      },
      "geometry": {
        "type": "Point",
        "coordinates": [
          -44.32589810438787,
          -31.647239260598198
        ]
      }
    },
    {
      "type": "Feature",
      "properties": {
        "norad_id": 66549,
        "name": "SHIJIAN-28",
        "group": "last-30-days",
        "lat": 8.826058848524129,
        "lon": -36.4703828504561,
        "alt_km": 20991.49726697915,
        "timestamp": "2025-12-09T23:33:22.608563+00:00",
        "meta_object_name": "SHIJIAN-28",
        "meta_object_id": "2025-277A",
        "meta_epoch": "2025-12-01T04:36:42.476256",
        "meta_mean_motion": 2.08595383,
        "meta_eccentricity": 0.6308324,
        "meta_inclination": 11.5392,
        "meta_ra_of_asc_node": 275.706,
        "meta_arg_of_pericenter": 179.9335,
        "meta_mean_anomaly": 180.3971,
        "meta_ephemeris_type": 0,
        "meta_classification_type": "U",
        "meta_norad_cat_id": 66549,
        "meta_element_set_no": 999,
        "meta_rev_at_epoch": 5,
        "meta_bstar": 0,
        "meta_mean_motion_dot": -3.3e-07,
        "meta_mean_motion_ddot": 0,
        "tle_line1": "1 66549U 25277A   25335.19215829 -.00000033  00000+0  00000+0 0  9993",
        "tle_line2": "2 66549  11.5392 275.7060 6308324 179.9335 180.3971  2.08595383    50"
      },
      "geometry": {
        "type": "Point",
        "coordinates": [
          -36.4703828504561,
          8.826058848524129
        ]
      }
    },
    {
      "type": "Feature",
      "properties": {
        "norad_id": 66550,
        "name": "CZ-7A R/B",
        "group": "last-30-days",
        "lat": -0.8360202914666451,
        "lon": -91.95256785120559,
        "alt_km": 30446.215771662308,
        "timestamp": "2025-12-09T23:33:22.608582+00:00",
        "meta_object_name": "CZ-7A R/B",
        "meta_object_id": "2025-277B",
        "meta_epoch": "2025-12-09T05:27:24.418944",
        "meta_mean_motion": 2.57975656,
        "meta_eccentricity": 0.7104172,
        "meta_inclination": 14.4001,
        "meta_ra_of_asc_node": 271.6446,
        "meta_arg_of_pericenter": 185.6905,
        "meta_mean_anomaly": 156.7335,
        "meta_ephemeris_type": 0,
        "meta_classification_type": "U",
        "meta_norad_cat_id": 66550,
        "meta_element_set_no": 999,
        "meta_rev_at_epoch": 25,
        "meta_bstar": 0.0029501,
        "meta_mean_motion_dot": 0.01805656,
        "meta_mean_motion_ddot": 5.5061e-07,
        "tle_line1": "1 66550U 25277B   25343.22736596  .01805656  55061-6  29501-2 0  9995",
        "tle_line2": "2 66550  14.4001 271.6446 7104172 185.6905 156.7335  2.57975656   259"
      },
      "geometry": {
        "type": "Point",
        "coordinates": [
          -91.95256785120559,
          -0.8360202914666451
        ]
      }
    },
    {
      "type": "Feature",
      "properties": {
        "norad_id": 66551,
        "name": "UNKNOWN",
        "group": "last-30-days",
        "lat": -52.45585406383074,
        "lon": 123.23391177104435,
        "alt_km": 328.3777949161449,
        "timestamp": "2025-12-09T23:33:22.608594+00:00",
        "meta_object_name": "UNKNOWN",
        "meta_object_id": "2025-271AE",
        "meta_epoch": "2025-12-02T16:00:03.000096",
        "meta_mean_motion": 15.87051116,
        "meta_eccentricity": 7.17e-05,
        "meta_inclination": 53.1571,
        "meta_ra_of_asc_node": 236.7807,
        "meta_arg_of_pericenter": 110.7411,
        "meta_mean_anomaly": 313.9012,
        "meta_ephemeris_type": 0,
        "meta_classification_type": "U",
        "meta_norad_cat_id": 66551,
        "meta_element_set_no": 999,
        "meta_rev_at_epoch": 262,
        "meta_bstar": -0.0074303,
        "meta_mean_motion_dot": -0.01709685,
        "meta_mean_motion_ddot": 0,
        "tle_line1": "1 66551U 25271AE  25336.66670139 -.01709685  00000+0 -74303-2 0  9993",
        "tle_line2": "2 66551  53.1571 236.7807 0000717 110.7411 313.9012 15.87051116  2624"
      },
      "geometry": {
        "type": "Point",
        "coordinates": [
          123.23391177104435,
          -52.45585406383074
        ]
      }
    }
  ]
}